     2.100          NAVIGATION                              RINEX VERSION / TYPE
fic2rin                                 07/12/2011 00:07:48 PGM / RUN BY / DATE
                                                            END OF HEADER
 7 11  7 11  4  0  0.0  .174469314516D-04  .147792889038D-11  .000000000000D+00
     .410000000000D+02 -.794062500000D+02  .417231665088D-08  .288069188468D+01
    -.407733023167D-05  .467885797843D-02  .401772558689D-05  .515365068054D+04
     .100800000000D+06 -.894069671631D-07  .140681861756D+01 -.372529029846D-08
     .974560397964D+00  .308500000000D+03 -.312985354500D+01 -.805390690612D-08
    -.123576576032D-09  .100000000000D+01  .164400000000D+04  .000000000000D+00
     .240000000000D+01  .000000000000D+00 -.107102096081D-07  .410000000000D+02
     .936060000000D+05  .400000000000D+01
 8 11  7 11  4  0  0.0  .846898183227D-05  .113686837722D-12  .000000000000D+00
     .820000000000D+02 -.914687500000D+02  .364979488575D-08  .236894169124D+01
    -.470504164696D-05  .117580550723D-01  .472553074360D-05  .515358397102D+04
     .100800000000D+06 -.210478901863D-06  .148331219304D+01  .139698386192D-06
     .996310430523D+00  .308281250000D+03 -.306944072493D+01 -.778746723641D-08
    -.210723063176D-09  .100000000000D+01  .164400000000D+04  .000000000000D+00
     .340000000000D+01  .000000000000D+00 -.419095158577D-08  .820000000000D+02
     .936060000000D+05  .400000000000D+01
 9 11  7 11  4  0  0.0  .919522717595D-04  .250111042988D-11  .000000000000D+00
     .440000000000D+02 -.991562500000D+02  .384766027049D-08  .215428316887D+01
    -.523962080479D-05  .174449047772D-01  .281445682049D-05  .515366857910D+04
     .100800000000D+06  .320374965668D-06  .137868918254D+01 -.670552253723D-07
     .983454645839D+00  .334656250000D+03  .158427047525D+01 -.782354016757D-08
    -.185722021782D-09  .100000000000D+01  .164400000000D+04  .000000000000D+00
     .340000000000D+01  .000000000000D+00 -.558793544769D-08  .440000000000D+02
     .936060000000D+05  .400000000000D+01
10 11  7 11  4  0  0.0 -.636046752334D-05 -.125055521494D-11  .000000000000D+00
     .540000000000D+02  .891562500000D+02  .470948188311D-08  .318241421518D+00
     .484846532345D-05  .102156965295D-01  .952184200287D-05  .515362537575D+04
     .100800000000D+06  .000000000000D+00 -.675562216952D+00  .152736902237D-06
     .948770445446D+00  .186937500000D+03  .703082507511D+00 -.817998358629D-08
    -.371444043564D-09  .100000000000D+01  .164400000000D+04  .000000000000D+00
     .240000000000D+01  .000000000000D+00 -.232830643654D-08  .540000000000D+02
     .936060000000D+05  .400000000000D+01
12 11  7 11  4  0  0.0  .832276418805D-05  .250111042988D-11  .000000000000D+00
     .140000000000D+02 -.914375000000D+02  .382730227965D-08  .269282895251D+01
    -.464916229248D-05  .367005891167D-02  .103190541267D-04  .515372109604D+04
     .100800000000D+06 -.596046447754D-07  .246221719730D+01  .819563865662D-07
     .975977651055D+00  .184687500000D+03 -.119269809209D+00 -.761424573533D-08
     .412874340731D-09  .100000000000D+01  .164400000000D+04  .000000000000D+00
     .240000000000D+01  .000000000000D+00 -.121071934700D-07  .140000000000D+02
     .936060000000D+05  .400000000000D+01
13 11  7 11  4  0  0.0  .261673238128D-03 -.181898940355D-11  .000000000000D+00
     .110000000000D+03  .672812500000D+02  .393659254631D-08 -.954411249825D+00
     .349804759026D-05  .474706233945D-02  .307522714138D-05  .515357622719D+04
     .100800000000D+06 -.204890966415D-07  .432321324033D+00  .502914190292D-07
     .989492829971D+00  .336312500000D+03  .189089320827D+01 -.804854954011D-08
     .778603860547D-10  .100000000000D+01  .164400000000D+04  .000000000000D+00
     .485000000000D+01  .000000000000D+00 -.111758708954D-07  .110000000000D+03
     .936060000000D+05  .400000000000D+01
14 11  7 11  4  0  0.0  .160924624652D-03  .204636307899D-11  .000000000000D+00
     .970000000000D+02  .813437500000D+02  .415017287136D-08 -.910643246872D+00
     .418350100517D-05  .593031453900D-02  .307522714138D-05  .515368391228D+04
     .100800000000D+06  .111758708954D-07  .407832286046D+00  .178813934326D-06
     .982511888764D+00  .332718750000D+03 -.211214618499D+01 -.819105547605D-08
     .142863093678D-10  .100000000000D+01  .164400000000D+04  .000000000000D+00
     .240000000000D+01  .000000000000D+00 -.884756445885D-08  .970000000000D+02
     .936060000000D+05  .400000000000D+01
15 11  7 11  4  0  0.0 -.116601120681D-03  .204636307899D-11  .000000000000D+00
     .980000000000D+02  .971250000000D+02  .477162732886D-08 -.129725270531D+01
     .506080687046D-05  .345870875753D-02  .274553894997D-05  .515364359474D+04
     .100800000000D+06 -.949949026108D-07  .330593226535D+00 -.108033418655D-06
     .949661466423D+00  .323375000000D+03 -.553760940652D-01 -.841892211047D-08
     .910752222200D-10  .100000000000D+01  .164400000000D+04  .000000000000D+00
     .240000000000D+01  .000000000000D+00 -.102445483208D-07  .980000000000D+02
     .936060000000D+05  .400000000000D+01
16 11  7 11  4  0  0.0 -.184651929885D-03 -.238742359215D-11  .000000000000D+00
     .520000000000D+02 -.726250000000D+02  .386123226439D-08  .339464649962D+00
    -.366009771824D-05  .635129166767D-02  .950694084167D-05  .515384525871D+04
     .100800000000D+06  .143423676491D-06  .248009052035D+01 -.577419996262D-07
     .976976377913D+00  .204625000000D+03 -.794790167686D-01 -.773425073402D-08
     .361800784741D-09  .100000000000D+01  .164400000000D+04  .000000000000D+00
     .240000000000D+01  .000000000000D+00 -.977888703346D-08  .520000000000D+02
     .936060000000D+05  .400000000000D+01
18 11  7 11  4  0  0.0  .146589707583D-03  .193267624127D-11  .000000000000D+00
     .680000000000D+02  .894687500000D+02  .499235080859D-08  .813951789068D+00
     .488385558128D-05  .126208412694D-01  .108536332846D-04  .515362085533D+04
     .100800000000D+06 -.152736902237D-06 -.681801248033D+00  .949949026108D-07
     .932648244109D+00  .157125000000D+03 -.223723775423D+01 -.837749181330D-08
    -.454661795632D-09  .100000000000D+01  .164400000000D+04  .000000000000D+00
     .240000000000D+01  .000000000000D+00 -.107102096081D-07  .680000000000D+02
     .936060000000D+05  .400000000000D+01
19 11  7 11  4  0  0.0 -.160737894475D-03 -.409272615798D-11  .000000000000D+00
     .490000000000D+02 -.906250000000D+00  .494520598768D-08 -.127965573187D+01
    -.283122062683D-06  .748859904706D-02  .673159956932D-05  .515366971397D+04
     .100800000000D+06  .502914190292D-07 -.270730255489D+01 -.819563865662D-07
     .959068250574D+00  .246656250000D+03  .423625219634D-01 -.812998150351D-08
     .493591988659D-09  .100000000000D+01  .164400000000D+04  .000000000000D+00
     .240000000000D+01  .000000000000D+00 -.144354999065D-07  .490000000000D+02
     .936060000000D+05  .400000000000D+01
20 11  7 11  4  0  0.0  .505931675434D-04  .341060513165D-12  .000000000000D+00
     .560000000000D+02  .710312500000D+02  .496663545173D-08  .119110136821D+01
     .364705920219D-05  .448442436755D-02  .968389213085D-05  .515363722992D+04
     .100800000000D+06 -.108033418655D-06 -.735693305333D+00 -.931322574615D-08
     .932807582220D+00  .178843750000D+03  .128378400331D+01 -.821141346690D-08
    -.333942481473D-09  .100000000000D+01  .164400000000D+04  .000000000000D+00
     .240000000000D+01  .000000000000D+00 -.745058059692D-08  .560000000000D+02
     .936060000000D+05  .400000000000D+01
21 11  7 11  4  0  0.0 -.157044269145D-03 -.261479726760D-11  .000000000000D+00
     .800000000000D+02 -.160312500000D+02  .556844623385D-08  .197375742479D+01
    -.998377799988D-06  .180062778527D-01  .792182981968D-05  .515373469353D+04
     .100800000000D+06 -.417232513428D-06 -.173576428528D+01 -.264495611191D-06
     .931227538531D+00  .217687500000D+03 -.234610902470D+01 -.836713423901D-08
    -.430732227440D-09  .100000000000D+01  .164400000000D+04  .000000000000D+00
     .340000000000D+01  .000000000000D+00 -.116415321827D-07  .800000000000D+02
     .936060000000D+05  .400000000000D+01
22 11  7 11  4  0  0.0  .146481674165D-03 -.227373675443D-12  .000000000000D+00
     .700000000000D+02  .843437500000D+02  .511735601556D-08 -.413342529375D-02
     .454299151897D-05  .584230292588D-02  .979565083981D-05  .515370886993D+04
     .100800000000D+06 -.447034835815D-07 -.677758144764D+00  .428408384323D-07
     .930349601892D+00  .172562500000D+03 -.198078893908D+01 -.834106172442D-08
    -.340014162955D-09  .100000000000D+01  .164400000000D+04  .000000000000D+00
     .340000000000D+01  .000000000000D+00 -.167638063431D-07  .700000000000D+02
     .936060000000D+05  .400000000000D+01
23 11  7 11  4  0  0.0  .292779877782D-03 -.284217094304D-11  .000000000000D+00
     .330000000000D+02  .792812500000D+02  .439661170795D-08 -.173434165742D+01
     .402145087719D-05  .743102026172D-02  .324286520481D-05  .515375795364D+04
     .100800000000D+06 -.242143869400D-07  .361570173078D+00 -.651925802231D-07
     .964183269029D+00  .319656250000D+03 -.311057825342D+01 -.817748348215D-08
     .131076888450D-09  .100000000000D+01  .164400000000D+04  .000000000000D+00
     .240000000000D+01  .000000000000D+00 -.200234353542D-07  .330000000000D+02
     .936060000000D+05  .400000000000D+01
24 11  7 11  4  0  0.0  .405654311180D-03  .318323145621D-11  .000000000000D+00
     .116000000000D+03 -.265625000000D+01  .506271088223D-08 -.246698779656D+01
    -.139698386192D-06  .635907123797D-02  .808574259281D-05  .515369447708D+04
     .100800000000D+06 -.199303030968D-06 -.169025128730D+01  .242143869400D-07
     .947807688818D+00  .218093750000D+03 -.255222426056D+00 -.808640825993D-08
    -.401088135502D-09  .100000000000D+01  .164400000000D+04  .000000000000D+00
     .240000000000D+01  .000000000000D+00 -.139698386192D-08  .116000000000D+03
     .936060000000D+05  .400000000000D+01
